[{"OBJECT_NAME":"OBJECT E","OBJECT_ID":"2024-174E","EPOCH":"2026-03-09T23:40:24.424320","MEAN_MOTION":15.26241811,"ECCENTRICITY":0.00122518,"INCLINATION":97.4515,"RA_OF_ASC_NODE":80.1669,"ARG_OF_PERICENTER":217.7524,"MEAN_ANOMALY":142.2856,"EPHEMERIS_TYPE":0,"CLASSIFICATION_TYPE":"U","NORAD_CAT_ID":61242,"ELEMENT_SET_NO":999,"REV_AT_EPOCH":8070,"BSTAR":0.00031155901,"MEAN_MOTION_DOT":8.013e-5,"MEAN_MOTION_DDOT":0},{"OBJECT_NAME":"STARLINK-34133","OBJECT_ID":"2025-111W","EPOCH":"2026-03-09T09:48:37.303776","MEAN_MOTION":15.27577729,"ECCENTRICITY":0.0001443,"INCLINATION":43.0028,"RA_OF_ASC_NODE":79.1729,"ARG_OF_PERICENTER":249.8975,"MEAN_ANOMALY":110.1722,"EPHEMERIS_TYPE":0,"CLASSIFICATION_TYPE":"U","NORAD_CAT_ID":64143,"ELEMENT_SET_NO":999,"REV_AT_EPOCH":4542,"BSTAR":-0.00015610311,"MEAN_MOTION_DOT":-4.555e-5,"MEAN_MOTION_DDOT":0}]
